start=new Date('2022-03-23T00:00:00.000Z').valueOf();
sats=[{"ARG_OF_PERICENTER":"87.5084","MEAN_MOTION_DOT":"-0.00717902","OBJECT_ID":"2022-017AC","REF_FRAME":"TEME","REV_AT_EPOCH":"370","GP_ID":"199432276","SITE":"AFWTR","DECAY_DATE":null,"MEAN_ELEMENT_THEORY":"SGP4","COUNTRY_CODE":"US","EPHEMERIS_TYPE":"0","TLE_LINE1":"1 51794U 22017AC  22081.91668981 -.00717902  00000-0 -66244-2 0  9991","CLASSIFICATION_TYPE":"U","MEAN_ANOMALY":"179.2924","MEAN_MOTION_DDOT":"0.0000000000000","APOAPSIS":"362.332","OBJECT_TYPE":"PAYLOAD","ECCENTRICITY":"0.00011620","OBJECT_NAME":"STARLINK-3573","PERIOD":"91.774","ELEMENT_SET_NO":"999","INCLINATION":"53.2178","SEMIMAJOR_AXIS":"6739.683","MEAN_MOTION":"15.69074320","FILE":"3370190","RA_OF_ASC_NODE":"18.5549","TLE_LINE2":"2 51794  53.2178  18.5549 0001162  87.5084 179.2924 15.69074320  3709","CENTER_NAME":"EARTH","EPOCH":"2022-03-22T22:00:01.999584","PERIAPSIS":"360.765","NORAD_CAT_ID":"51794","TIME_SYSTEM":"UTC","RCS_SIZE":"LARGE","BSTAR":"-0.00662440000000","LAUNCH_DATE":"2022-02-25"},{"CENTER_NAME":"EARTH","EPOCH":"2022-03-22T22:00:01.999584","PERIAPSIS":"361.098","NORAD_CAT_ID":"51795","RCS_SIZE":"LARGE","TIME_SYSTEM":"UTC","BSTAR":"-0.00665950000000","LAUNCH_DATE":"2022-02-25","ECCENTRICITY":"0.00012120","OBJECT_NAME":"STARLINK-3586","PERIOD":"91.781","INCLINATION":"53.2178","ELEMENT_SET_NO":"999","SEMIMAJOR_AXIS":"6740.049","MEAN_MOTION":"15.68946516","FILE":"3370190","RA_OF_ASC_NODE":"18.5563","TLE_LINE2":"2 51795  53.2178  18.5563 0001212  70.9169 193.9818 15.68946516  3701","MEAN_ELEMENT_THEORY":"SGP4","COUNTRY_CODE":"US","EPHEMERIS_TYPE":"0","TLE_LINE1":"1 51795U 22017AD  22081.91668981 -.00717896  00000-0 -66595-2 0  9993","CLASSIFICATION_TYPE":"U","MEAN_ANOMALY":"193.9818","MEAN_MOTION_DDOT":"0.0000000000000","APOAPSIS":"362.731","OBJECT_TYPE":"PAYLOAD","ARG_OF_PERICENTER":"70.9169","MEAN_MOTION_DOT":"-0.00717896","OBJECT_ID":"2022-017AD","REF_FRAME":"TEME","REV_AT_EPOCH":"370","GP_ID":"199431691","SITE":"AFWTR","DECAY_DATE":null},{"REV_AT_EPOCH":"370","REF_FRAME":"TEME","MEAN_MOTION_DOT":"-0.00716570","ARG_OF_PERICENTER":"60.2662","OBJECT_ID":"2022-017AE","DECAY_DATE":null,"GP_ID":"199431460","SITE":"AFWTR","COUNTRY_CODE":"US","EPHEMERIS_TYPE":"0","MEAN_ELEMENT_THEORY":"SGP4","OBJECT_TYPE":"PAYLOAD","CLASSIFICATION_TYPE":"U","TLE_LINE1":"1 51796U 22017AE  22081.91668981 -.00716570  00000-0 -71766-2 0  9998","MEAN_ANOMALY":"184.3817","MEAN_MOTION_DDOT":"0.0000000000000","APOAPSIS":"368.162","PERIOD":"91.891","INCLINATION":"53.2178","ELEMENT_SET_NO":"999","SEMIMAJOR_AXIS":"6745.398","OBJECT_NAME":"STARLINK-3630","ECCENTRICITY":"0.00013320","MEAN_MOTION":"15.67080689","FILE":"3370190","RA_OF_ASC_NODE":"18.5471","TLE_LINE2":"2 51796  53.2178  18.5471 0001332  60.2662 184.3817 15.67080689  3705","CENTER_NAME":"EARTH","EPOCH":"2022-03-22T22:00:01.999584","PERIAPSIS":"366.365","BSTAR":"-0.00717660000000","LAUNCH_DATE":"2022-02-25","NORAD_CAT_ID":"51796","RCS_SIZE":"LARGE","TIME_SYSTEM":"UTC"},{"GP_ID":"199431934","SITE":"AFWTR","DECAY_DATE":null,"MEAN_MOTION_DOT":"-0.00717773","ARG_OF_PERICENTER":"67.7996","OBJECT_ID":"2022-017AF","REV_AT_EPOCH":"370","REF_FRAME":"TEME","CLASSIFICATION_TYPE":"U","TLE_LINE1":"1 51797U 22017AF  22081.91668981 -.00717773  00000-0 -67292-2 0  9994","MEAN_ANOMALY":"193.1800","MEAN_MOTION_DDOT":"0.0000000000000","APOAPSIS":"363.475","OBJECT_TYPE":"PAYLOAD","MEAN_ELEMENT_THEORY":"SGP4","COUNTRY_CODE":"US","EPHEMERIS_TYPE":"0","MEAN_MOTION":"15.68690826","FILE":"3370190","RA_OF_ASC_NODE":"18.5590","TLE_LINE2":"2 51797  53.2178  18.5590 0001228  67.7996 193.1800 15.68690826  3705","OBJECT_NAME":"STARLINK-3627","ECCENTRICITY":"0.00012280","PERIOD":"91.796","INCLINATION":"53.2178","ELEMENT_SET_NO":"999","SEMIMAJOR_AXIS":"6740.782","NORAD_CAT_ID":"51797","RCS_SIZE":"LARGE","TIME_SYSTEM":"UTC","BSTAR":"-0.00672920000000","LAUNCH_DATE":"2022-02-25","CENTER_NAME":"EARTH","EPOCH":"2022-03-22T22:00:01.999584","PERIAPSIS":"361.819"},{"TLE_LINE2":"2 51798  53.2178  18.5467 0001367  55.6359 191.4743 15.67208632  3708","RA_OF_ASC_NODE":"18.5467","FILE":"3370190","MEAN_MOTION":"15.67208632","OBJECT_NAME":"STARLINK-3634","ECCENTRICITY":"0.00013670","SEMIMAJOR_AXIS":"6745.031","INCLINATION":"53.2178","ELEMENT_SET_NO":"999","PERIOD":"91.883","RCS_SIZE":"LARGE","TIME_SYSTEM":"UTC","NORAD_CAT_ID":"51798","LAUNCH_DATE":"2022-02-25","BSTAR":"-0.00714150000000","PERIAPSIS":"365.974","EPOCH":"2022-03-22T22:00:01.999584","CENTER_NAME":"EARTH","SITE":"AFWTR","GP_ID":"199432162","DECAY_DATE":null,"OBJECT_ID":"2022-017AG","ARG_OF_PERICENTER":"55.6359","MEAN_MOTION_DOT":"-0.00716792","REV_AT_EPOCH":"370","REF_FRAME":"TEME","APOAPSIS":"367.818","MEAN_MOTION_DDOT":"0.0000000000000","MEAN_ANOMALY":"191.4743","TLE_LINE1":"1 51798U 22017AG  22081.91668981 -.00716792  00000-0 -71415-2 0  9997","CLASSIFICATION_TYPE":"U","OBJECT_TYPE":"PAYLOAD","MEAN_ELEMENT_THEORY":"SGP4","EPHEMERIS_TYPE":"0","COUNTRY_CODE":"US"},{"MEAN_MOTION":"15.69202237","FILE":"3370190","RA_OF_ASC_NODE":"18.5533","TLE_LINE2":"2 51799  53.2178  18.5533 0001212  70.2093 198.4550 15.69202237  3700","PERIOD":"91.766","INCLINATION":"53.2178","ELEMENT_SET_NO":"999","SEMIMAJOR_AXIS":"6739.317","OBJECT_NAME":"STARLINK-3637","ECCENTRICITY":"0.00012120","BSTAR":"-0.00659140000000","LAUNCH_DATE":"2022-02-25","NORAD_CAT_ID":"51799","RCS_SIZE":"LARGE","TIME_SYSTEM":"UTC","CENTER_NAME":"EARTH","EPOCH":"2022-03-22T22:00:01.999584","PERIAPSIS":"360.365","DECAY_DATE":null,"GP_ID":"199432048","SITE":"AFWTR","REV_AT_EPOCH":"370","REF_FRAME":"TEME","ARG_OF_PERICENTER":"70.2093","MEAN_MOTION_DOT":"-0.00718127","OBJECT_ID":"2022-017AH","OBJECT_TYPE":"PAYLOAD","CLASSIFICATION_TYPE":"U","TLE_LINE1":"1 51799U 22017AH  22081.91668981 -.00718127  00000-0 -65914-2 0  9999","MEAN_ANOMALY":"198.4550","MEAN_MOTION_DDOT":"0.0000000000000","APOAPSIS":"361.999","COUNTRY_CODE":"US","EPHEMERIS_TYPE":"0","MEAN_ELEMENT_THEORY":"SGP4"},{"OBJECT_NAME":"STARLINK-3600","ECCENTRICITY":"0.00012250","INCLINATION":"53.2178","ELEMENT_SET_NO":"999","SEMIMAJOR_AXIS":"6744.396","PERIOD":"91.870","RA_OF_ASC_NODE":"18.5456","TLE_LINE2":"2 51800  53.2178  18.5456 0001225  73.1050 178.3494 15.67429950  3701","MEAN_MOTION":"15.67429950","FILE":"3370190","PERIAPSIS":"365.435","CENTER_NAME":"EARTH","EPOCH":"2022-03-22T22:00:01.999584","RCS_SIZE":"LARGE","TIME_SYSTEM":"UTC","NORAD_CAT_ID":"51800","BSTAR":"-0.00707820000000","LAUNCH_DATE":"2022-02-25","MEAN_MOTION_DOT":"-0.00716865","ARG_OF_PERICENTER":"73.1050","OBJECT_ID":"2022-017AJ","REV_AT_EPOCH":"370","REF_FRAME":"TEME","SITE":"AFWTR","GP_ID":"199431817","DECAY_DATE":null,"MEAN_ELEMENT_THEORY":"SGP4","EPHEMERIS_TYPE":"0","COUNTRY_CODE":"US","APOAPSIS":"367.087","CLASSIFICATION_TYPE":"U","TLE_LINE1":"1 51800U 22017AJ  22081.91668981 -.00716865  00000-0 -70782-2 0  9998","MEAN_MOTION_DDOT":"0.0000000000000","MEAN_ANOMALY":"178.3494","OBJECT_TYPE":"PAYLOAD"},{"FILE":"3370190","MEAN_MOTION":"15.66952813","TLE_LINE2":"2 51801  53.2178  18.5473 0001296  63.2470 178.9000 15.66952813  3702","RA_OF_ASC_NODE":"18.5473","PERIOD":"91.898","SEMIMAJOR_AXIS":"6745.765","INCLINATION":"53.2178","ELEMENT_SET_NO":"999","OBJECT_NAME":"STARLINK-3592","ECCENTRICITY":"0.00012960","LAUNCH_DATE":"2022-02-25","BSTAR":"-0.00721260000000","NORAD_CAT_ID":"51801","TIME_SYSTEM":"UTC","RCS_SIZE":"LARGE","EPOCH":"2022-03-22T22:00:01.999584","CENTER_NAME":"EARTH","PERIAPSIS":"366.756","DECAY_DATE":null,"GP_ID":"199431577","SITE":"AFWTR","REV_AT_EPOCH":"370","REF_FRAME":"TEME","OBJECT_ID":"2022-017AK","ARG_OF_PERICENTER":"63.2470","MEAN_MOTION_DOT":"-0.00716420","OBJECT_TYPE":"PAYLOAD","MEAN_ANOMALY":"178.9000","MEAN_MOTION_DDOT":"0.0000000000000","CLASSIFICATION_TYPE":"U","TLE_LINE1":"1 51801U 22017AK  22081.91668981 -.00716420  00000-0 -72126-2 0  9990","APOAPSIS":"368.505","COUNTRY_CODE":"US","EPHEMERIS_TYPE":"0","MEAN_ELEMENT_THEORY":"SGP4"},{"OBJECT_NAME":"STARLINK-3557","ECCENTRICITY":"0.00011660","INCLINATION":"53.2178","ELEMENT_SET_NO":"999","SEMIMAJOR_AXIS":"6741.013","PERIOD":"91.801","RA_OF_ASC_NODE":"18.5460","TLE_LINE2":"2 51802  53.2178  18.5460 0001166  84.7722 182.3670 15.68610248  3700","MEAN_MOTION":"15.68610248","FILE":"3370190","PERIAPSIS":"362.092","CENTER_NAME":"EARTH","EPOCH":"2022-03-22T22:00:01.999584","TIME_SYSTEM":"UTC","RCS_SIZE":"LARGE","NORAD_CAT_ID":"51802","BSTAR":"-0.00675290000000","LAUNCH_DATE":"2022-02-25","ARG_OF_PERICENTER":"84.7722","MEAN_MOTION_DOT":"-0.00717879","OBJECT_ID":"2022-017AL","REF_FRAME":"TEME","REV_AT_EPOCH":"370","SITE":"AFWTR","GP_ID":"199432277","DECAY_DATE":null,"MEAN_ELEMENT_THEORY":"SGP4","EPHEMERIS_TYPE":"0","COUNTRY_CODE":"US","APOAPSIS":"363.664","TLE_LINE1":"1 51802U 22017AL  22081.91668981 -.00717879  00000-0 -67529-2 0  9991","CLASSIFICATION_TYPE":"U","MEAN_ANOMALY":"182.3670","MEAN_MOTION_DDOT":"0.0000000000000","OBJECT_TYPE":"PAYLOAD"},{"MEAN_ELEMENT_THEORY":"SGP4","COUNTRY_CODE":"US","EPHEMERIS_TYPE":"0","TLE_LINE1":"1 51803U 22017AM  22081.91668981 -.00716922  00000-0 -71058-2 0  9992","CLASSIFICATION_TYPE":"U","MEAN_MOTION_DDOT":"0.0000000000000","MEAN_ANOMALY":"187.8613","APOAPSIS":"367.402","OBJECT_TYPE":"PAYLOAD","ARG_OF_PERICENTER":"61.6729","MEAN_MOTION_DOT":"-0.00716922","OBJECT_ID":"2022-017AM","REF_FRAME":"TEME","REV_AT_EPOCH":"370","GP_ID":"199431692","SITE":"AFWTR","DECAY_DATE":null,"CENTER_NAME":"EARTH","EPOCH":"2022-03-22T22:00:01.999584","PERIAPSIS":"365.657","NORAD_CAT_ID":"51803","RCS_SIZE":"LARGE","TIME_SYSTEM":"UTC","BSTAR":"-0.00710580000000","LAUNCH_DATE":"2022-02-25","OBJECT_NAME":"STARLINK-3544","ECCENTRICITY":"0.00012940","PERIOD":"91.876","ELEMENT_SET_NO":"999","INCLINATION":"53.2178","SEMIMAJOR_AXIS":"6744.664","MEAN_MOTION":"15.67336500","FILE":"3370190","RA_OF_ASC_NODE":"18.5462","TLE_LINE2":"2 51803  53.2178  18.5462 0001294  61.6729 187.8613 15.67336500  3708"}];
